SL-14 R/B               
1 15945U 85069B   26096.21027323  .00000615  00000+0  66600-4 0  9998
2 15945  82.5302 359.0627 0020322 100.3402 260.0107 14.86464673176927
SL-16 R/B               
1 16182U 85097B   26096.24905590 -.00000081  00000+0 -16597-4 0  9996
2 16182  71.0010  82.5301 0009106 226.5098 225.1261 14.16602364 91132
SL-14 R/B               
1 16496U 86006B   26095.84376897  .00001250  00000+0  12997-3 0  9998
2 16496  82.5265 234.1765 0076450 181.5815 178.5173 14.86865512153248
COSMOS 1743             
1 16719U 86034A   26095.90913630  .00051793  00000+0  61131-3 0  9997
2 16719  82.5316  45.2139 0005923 151.3594 208.7989 15.61105966184491
SL-14 R/B               
1 16792U 86046B   26095.95118454  .00000681  00000+0  75494-4 0  9995
2 16792  82.4819  54.4185 0024174 135.1453 225.1723 14.85620054130456
SL-14 R/B               
1 16882U 86055B   26096.08024995  .00000590  00000+0  65177-4 0  9992
2 16882  82.5169 100.9207 0017506 239.1139 181.0179 14.85669585123431
AJISAI (EGS)            
1 16908U 86061A   26096.11899574 -.00000082  00000+0  10901-3 0  9996
2 16908  50.0122   9.0032 0011375 357.5855 156.1896 12.44515698471413
SL-14 R/B               
1 17567U 87024B   26095.97465422  .00000653  00000+0  71426-4 0  9995
2 17567  82.5267  67.1120 0018548 165.5833 194.5917 14.86161194 92189
COSMOS 1833             
1 17589U 87027A   26095.90201737 -.00000316  00000+0 -14317-3 0  9995
2 17589  70.9163 268.8195 0022903 173.7457 186.3954 14.13043393 14166
SL-16 R/B               
1 17590U 87027B   26096.29079928  .00000202  00000+0  12414-3 0  9993
2 17590  71.0029 218.3287 0002863  72.1047 288.0389 14.17169529 19254
SL-14 R/B               
1 17912U 87038B   26095.98361550  .00000630  00000+0  70136-4 0  9994
2 17912  82.4979 271.0871 0020696  75.6552 284.6960 14.85397201 83286
COSMOS 1844             
1 17973U 87041A   26096.12029636  .00000263  00000+0  16130-3 0  9993
2 17973  70.9015 336.3200 0031648 337.5658  22.4078 14.14563204  7467
SL-14 R/B               
1 18153U 87055B   26096.09036121  .00000516  00000+0  56603-4 0  9993
2 18153  82.4992 323.2086 0019134 284.2261  75.6829 14.85657535 74008
COSMOS 1867             
1 18187U 87060A   26095.75709611 -.00000004  00000+0  36308-4 0  9992
2 18187  65.0102 230.8994 0014985 280.1742  79.7652 14.31507639 23816
SL-14 R/B               
1 18749U 88001B   26096.22234088  .00000579  00000+0  63975-4 0  9992
2 18749  82.5155 169.4731 0019008 143.6307 216.6205 14.85559389 46111
COSMOS 1933             
1 18958U 88020A   26095.81451411  .00005778  00000+0  28053-3 0  9993
2 18958  82.5147 224.0685 0005374 104.3210 255.8621 15.18269651 54346
