[ {"OBJECT_NAME": "SL-14 R/B", "OBJECT_ID": "1985-069B", "EPOCH": "2026-04-06T05:02:47.607072", "MEAN_MOTION": 14.86464673, "ECCENTRICITY": 0.00203221, "INCLINATION": 82.5302, "RA_OF_ASC_NODE": 359.0627, "ARG_OF_PERICENTER": 100.3402, "MEAN_ANOMALY": 260.0107, "EPHEMERIS_TYPE": 0, "CLASSIFICATION_TYPE": "U", "NORAD_CAT_ID": 15945, "ELEMENT_SET_NO": 999, "REV_AT_EPOCH": 17692, "BSTAR": 6.6600465e-05, "MEAN_MOTION_DOT": 6.15e-06, "MEAN_MOTION_DDOT": 0}, {"OBJECT_NAME": "SL-16 R/B", "OBJECT_ID": "1985-097B", "EPOCH": "2026-04-06T05:58:38.429760", "MEAN_MOTION": 14.16602364, "ECCENTRICITY": 0.00091067, "INCLINATION": 71.001, "RA_OF_ASC_NODE": 82.5301, "ARG_OF_PERICENTER": 226.5098, "MEAN_ANOMALY": 225.1261, "EPHEMERIS_TYPE": 0, "CLASSIFICATION_TYPE": "U", "NORAD_CAT_ID": 16182, "ELEMENT_SET_NO": 999, "REV_AT_EPOCH": 9113, "BSTAR": -1.6596638e-05, "MEAN_MOTION_DOT": -8.1e-07, "MEAN_MOTION_DDOT": 0}, {"OBJECT_NAME": "SL-14 R/B", "OBJECT_ID": "1986-006B", "EPOCH": "2026-04-05T20:15:01.639008", "MEAN_MOTION": 14.86865512, "ECCENTRICITY": 0.00764506, "INCLINATION": 82.5265, "RA_OF_ASC_NODE": 234.1765, "ARG_OF_PERICENTER": 181.5815, "MEAN_ANOMALY": 178.5173, "EPHEMERIS_TYPE": 0, "CLASSIFICATION_TYPE": "U", "NORAD_CAT_ID": 16496, "ELEMENT_SET_NO": 999, "REV_AT_EPOCH": 15324, "BSTAR": 0.00012996714, "MEAN_MOTION_DOT": 1.25e-05, "MEAN_MOTION_DDOT": 0}, {"OBJECT_NAME": "COSMOS 1743", "OBJECT_ID": "1986-034A", "EPOCH": "2026-04-05T21:49:09.376320", "MEAN_MOTION": 15.61105966, "ECCENTRICITY": 0.0005923, "INCLINATION": 82.5316, "RA_OF_ASC_NODE": 45.2139, "ARG_OF_PERICENTER": 151.3594, "MEAN_ANOMALY": 208.7989, "EPHEMERIS_TYPE": 0, "CLASSIFICATION_TYPE": "U", "NORAD_CAT_ID": 16719, "ELEMENT_SET_NO": 999, "REV_AT_EPOCH": 18449, "BSTAR": 0.00061131461, "MEAN_MOTION_DOT": 0.00051793, "MEAN_MOTION_DDOT": 0}, {"OBJECT_NAME": "SL-14 R/B", "OBJECT_ID": "1986-046B", "EPOCH": "2026-04-05T22:49:42.344256", "MEAN_MOTION": 14.85620054, "ECCENTRICITY": 0.00241746, "INCLINATION": 82.4819, "RA_OF_ASC_NODE": 54.4185, "ARG_OF_PERICENTER": 135.1453, "MEAN_ANOMALY": 225.1723, "EPHEMERIS_TYPE": 0, "CLASSIFICATION_TYPE": "U", "NORAD_CAT_ID": 16792, "ELEMENT_SET_NO": 999, "REV_AT_EPOCH": 13045, "BSTAR": 7.5494086e-05, "MEAN_MOTION_DOT": 6.81e-06, "MEAN_MOTION_DDOT": 0}, {"OBJECT_NAME": "SL-14 R/B", "OBJECT_ID": "1986-055B", "EPOCH": "2026-04-06T01:55:33.595680", "MEAN_MOTION": 14.85669585, "ECCENTRICITY": 0.00175066, "INCLINATION": 82.5169, "RA_OF_ASC_NODE": 100.9207, "ARG_OF_PERICENTER": 239.1139, "MEAN_ANOMALY": 181.0179, "EPHEMERIS_TYPE": 0, "CLASSIFICATION_TYPE": "U", "NORAD_CAT_ID": 16882, "ELEMENT_SET_NO": 999, "REV_AT_EPOCH": 12343, "BSTAR": 6.5176553e-05, "MEAN_MOTION_DOT": 5.9e-06, "MEAN_MOTION_DDOT": 0}, {"OBJECT_NAME": "AJISAI (EGS)", "OBJECT_ID": "1986-061A", "EPOCH": "2026-04-06T02:51:21.231936", "MEAN_MOTION": 12.44515698, "ECCENTRICITY": 0.00113754, "INCLINATION": 50.0122, "RA_OF_ASC_NODE": 9.0032, "ARG_OF_PERICENTER": 357.5855, "MEAN_ANOMALY": 156.1896, "EPHEMERIS_TYPE": 0, "CLASSIFICATION_TYPE": "U", "NORAD_CAT_ID": 16908, "ELEMENT_SET_NO": 999, "REV_AT_EPOCH": 47141, "BSTAR": 0.0001090059, "MEAN_MOTION_DOT": -8.2e-07, "MEAN_MOTION_DDOT": 0}, {"OBJECT_NAME": "SL-14 R/B", "OBJECT_ID": "1987-024B", "EPOCH": "2026-04-05T23:23:30.124608", "MEAN_MOTION": 14.86161194, "ECCENTRICITY": 0.0018548, "INCLINATION": 82.5267, "RA_OF_ASC_NODE": 67.112, "ARG_OF_PERICENTER": 165.5833, "MEAN_ANOMALY": 194.5917, "EPHEMERIS_TYPE": 0, "CLASSIFICATION_TYPE": "U", "NORAD_CAT_ID": 17567, "ELEMENT_SET_NO": 999, "REV_AT_EPOCH": 9218, "BSTAR": 7.1425668e-05, "MEAN_MOTION_DOT": 6.53e-06, "MEAN_MOTION_DDOT": 0}, {"OBJECT_NAME": "COSMOS 1833", "OBJECT_ID": "1987-027A", "EPOCH": "2026-04-05T21:38:54.300768", "MEAN_MOTION": 14.13043393, "ECCENTRICITY": 0.00229036, "INCLINATION": 70.9163, "RA_OF_ASC_NODE": 268.8195, "ARG_OF_PERICENTER": 173.7457, "MEAN_ANOMALY": 186.3954, "EPHEMERIS_TYPE": 0, "CLASSIFICATION_TYPE": "U", "NORAD_CAT_ID": 17589, "ELEMENT_SET_NO": 999, "REV_AT_EPOCH": 1416, "BSTAR": -0.00014316934, "MEAN_MOTION_DOT": -3.16e-06, "MEAN_MOTION_DDOT": 0}, {"OBJECT_NAME": "SL-16 R/B", "OBJECT_ID": "1987-027B", "EPOCH": "2026-04-06T06:58:45.057792", "MEAN_MOTION": 14.17169529, "ECCENTRICITY": 0.00028636, "INCLINATION": 71.0029, "RA_OF_ASC_NODE": 218.3287, "ARG_OF_PERICENTER": 72.1047, "MEAN_ANOMALY": 288.0389, "EPHEMERIS_TYPE": 0, "CLASSIFICATION_TYPE": "U", "NORAD_CAT_ID": 17590, "ELEMENT_SET_NO": 999, "REV_AT_EPOCH": 1925, "BSTAR": 0.00012414406, "MEAN_MOTION_DOT": 2.02e-06, "MEAN_MOTION_DDOT": 0}, {"OBJECT_NAME": "SL-14 R/B", "OBJECT_ID": "1987-038B", "EPOCH": "2026-04-05T23:36:24.379200", "MEAN_MOTION": 14.85397201, "ECCENTRICITY": 0.00206961, "INCLINATION": 82.4979, "RA_OF_ASC_NODE": 271.0871, "ARG_OF_PERICENTER": 75.6552, "MEAN_ANOMALY": 284.696, "EPHEMERIS_TYPE": 0, "CLASSIFICATION_TYPE": "U", "NORAD_CAT_ID": 17912, "ELEMENT_SET_NO": 999, "REV_AT_EPOCH": 8328, "BSTAR": 7.0135791e-05, "MEAN_MOTION_DOT": 6.3e-06, "MEAN_MOTION_DDOT": 0}, {"OBJECT_NAME": "COSMOS 1844", "OBJECT_ID": "1987-041A", "EPOCH": "2026-04-06T02:53:13.605504", "MEAN_MOTION": 14.14563204, "ECCENTRICITY": 0.00316488, "INCLINATION": 70.9015, "RA_OF_ASC_NODE": 336.32, "ARG_OF_PERICENTER": 337.5658, "MEAN_ANOMALY": 22.4078, "EPHEMERIS_TYPE": 0, "CLASSIFICATION_TYPE": "U", "NORAD_CAT_ID": 17973, "ELEMENT_SET_NO": 999, "REV_AT_EPOCH": 746, "BSTAR": 0.00016129887, "MEAN_MOTION_DOT": 2.63e-06, "MEAN_MOTION_DDOT": 0}, {"OBJECT_NAME": "SL-14 R/B", "OBJECT_ID": "1987-055B", "EPOCH": "2026-04-06T02:10:07.208544", "MEAN_MOTION": 14.85657535, "ECCENTRICITY": 0.00191347, "INCLINATION": 82.4992, "RA_OF_ASC_NODE": 323.2086, "ARG_OF_PERICENTER": 284.2261, "MEAN_ANOMALY": 75.6829, "EPHEMERIS_TYPE": 0, "CLASSIFICATION_TYPE": "U", "NORAD_CAT_ID": 18153, "ELEMENT_SET_NO": 999, "REV_AT_EPOCH": 7400, "BSTAR": 5.660336e-05, "MEAN_MOTION_DOT": 5.16e-06, "MEAN_MOTION_DDOT": 0}, {"OBJECT_NAME": "COSMOS 1867", "OBJECT_ID": "1987-060A", "EPOCH": "2026-04-05T18:10:13.103904", "MEAN_MOTION": 14.31507639, "ECCENTRICITY": 0.00149853, "INCLINATION": 65.0102, "RA_OF_ASC_NODE": 230.8994, "ARG_OF_PERICENTER": 280.1742, "MEAN_ANOMALY": 79.7652, "EPHEMERIS_TYPE": 0, "CLASSIFICATION_TYPE": "U", "NORAD_CAT_ID": 18187, "ELEMENT_SET_NO": 999, "REV_AT_EPOCH": 2381, "BSTAR": 3.6307596e-05, "MEAN_MOTION_DOT": -4e-08, "MEAN_MOTION_DDOT": 0}, {"OBJECT_NAME": "SL-14 R/B", "OBJECT_ID": "1988-001B", "EPOCH": "2026-04-06T05:20:10.252032", "MEAN_MOTION": 14.85559389, "ECCENTRICITY": 0.00190082, "INCLINATION": 82.5155, "RA_OF_ASC_NODE": 169.4731, "ARG_OF_PERICENTER": 143.6307, "MEAN_ANOMALY": 216.6205, "EPHEMERIS_TYPE": 0, "CLASSIFICATION_TYPE": "U", "NORAD_CAT_ID": 18749, "ELEMENT_SET_NO": 999, "REV_AT_EPOCH": 4611, "BSTAR": 6.3974822e-05, "MEAN_MOTION_DOT": 5.79e-06, "MEAN_MOTION_DDOT": 0}, {"OBJECT_NAME": "COSMOS 1933", "OBJECT_ID": "1988-020A", "EPOCH": "2026-04-05T19:32:54.019104", "MEAN_MOTION": 15.18269651, "ECCENTRICITY": 0.00053742, "INCLINATION": 82.5147, "RA_OF_ASC_NODE": 224.0685, "ARG_OF_PERICENTER": 104.321, "MEAN_ANOMALY": 255.8621, "EPHEMERIS_TYPE": 0, "CLASSIFICATION_TYPE": "U", "NORAD_CAT_ID": 18958, "ELEMENT_SET_NO": 999, "REV_AT_EPOCH": 5434, "BSTAR": 0.00028053306, "MEAN_MOTION_DOT": 5.778e-05, "MEAN_MOTION_DDOT": 0}]